IRIDIUM 136             
1 42962U 17061H   24141.07904574  .00000057  00000+0  13377-4 0  9992
2 42962  86.3970 342.0759 0002297  79.1010 281.0444 14.34213618346173
